IXPE                    
1 49954U 21121A   24225.91667824  .00014774  00000+0  11150-2 0  9998
2 49954   0.2321 332.2499 0009061  43.4130 166.0361 14.99052464146428
